NSS-10                  
1 28526U 05003A   24189.47091380 -.00000258  00000+0  00000+0 0  9991
2 28526   4.6663  78.9687 0002659  24.7042 314.3031  1.00272595 46035
XTAR-EUR                
1 28542U 05005A   24189.36219852  .00000145  00000+0  00000+0 0  9999
2 28542   2.5006  85.6026 0002609  16.0384 343.5136  1.00271390 71075
XM-3 (RHYTHM)           
1 28626U 05008A   24189.38452376 -.00000208  00000+0  00000+0 0  9998
2 28626   0.0056 342.6588 0004649 243.3791 113.0528  1.00270554 35502
INMARSAT 4-F1           
1 28628U 05009A   24189.79998486  .00000028  00000+0  00000+0 0  9992
2 28628   4.3011  41.1365 0001464  85.2683 265.9317  1.00272587 70556
DIRECTV 8               
1 28659U 05019A   24189.74091414 -.00000002  00000+0  00000+0 0  9990
2 28659   0.0183  33.4712 0002766  81.2413 319.1430  1.00272065 70072
GALAXY 28 (G-28)        
1 28702U 05022A   24190.18174285 -.00000189  00000+0  00000+0 0  9997
2 28702   1.4638  87.7486 0001550 140.7796  34.4980  1.00270032 69714
THAICOM 4               
1 28786U 05028A   24189.86405752 -.00000366  00000+0  00000+0 0  9991
2 28786   0.0254  46.5365 0001927  66.8122 243.5087  1.00268892 69210
GALAXY 14 (G-14)        
1 28790U 05030A   24190.12892095  .00000150  00000+0  00000+0 0  9990
2 28790   3.1838  83.5987 0001276  22.8651 259.3915  1.00272948 69193
ANIK F1R                
1 28868U 05036A   24189.67171713 -.00000079  00000+0  00000+0 0  9998
2 28868   2.4842  85.4113 0003445  19.5817 315.6176  1.00271800 69040
SYRACUSE 3A             
1 28885U 05041B   24190.13153162  .00000127  00000+0  00000+0 0  9997
2 28885   2.8264  84.6767 0002508  15.8578 279.5642  1.00270314 68638
INMARSAT 4-F2           
1 28899U 05044A   24189.50683569 -.00000266  00000+0  00000+0 0  9998
2 28899   4.2108  42.5342 0001634  73.8585 135.5013  1.00271915 68405
SPACEWAY 2              
1 28903U 05046B   24189.43954949  .00000097  00000+0  00000+0 0  9992
2 28903   3.6553  80.0483 0000466 192.0843  33.0808  1.00272340 44225
METEOSAT-9 (MSG-2)      
1 28912U 05049B   24189.20120362  .00000118  00000+0  00000+0 0  9998
2 28912   7.7316  60.7049 0001755 358.0314 344.9946  1.00273503 67953
EUTELSAT 174A           
1 28924U 05052A   24189.50743980  .00000004  00000+0  00000+0 0  9999
2 28924   2.4116  85.2942 0006155  20.8959 176.4088  1.00271250 45215
ECHOSTAR 10             
1 28935U 06003A   24189.67110797 -.00000059  00000+0  00000+0 0  9991
2 28935   0.0183 329.9917 0002097  81.1411   6.3693  1.00272067 67404
SPAINSAT                
1 28945U 06007A   24189.28963028 -.00000220  00000+0  00000+0 0  9996
2 28945   0.0256 282.1721 0004001 216.4128 221.4454  1.00270847 67098
EUTELSAT HOTBIRD 13E    
1 28946U 06007B   24189.55245947  .00000082  00000+0  00000+0 0  9995
2 28946   0.2666 106.1579 0004576   7.5826  23.9259  1.00274009 67219
JCSAT-5A                
1 29045U 06010A   24189.50457310 -.00000331  00000+0  00000+0 0  9992
2 29045   0.0432 257.8770 0000690 293.9900  47.7719  1.00272308 66655
ASTRA 1KR               
1 29055U 06012A   24189.55367778  .00000116  00000+0  00000+0 0  9998
2 29055   0.0457 283.6899 0002216 241.6423 339.1656  1.00271933 38603
EWS-G1 (GOES 13)        
1 29155U 06018A   24189.57469050 -.00000293  00000+0  00000+0 0  9990
2 29155   2.6785  85.0643 0078855 255.6102 298.5354  0.99071226 66365
GALAXY 16 (G-16)        
1 29236U 06023A   24189.81634510 -.00000130  00000+0  00000+0 0  9998
2 29236   0.0192  76.4335 0002483  41.7309   2.9561  1.00271223 66154
EUTELSAT HOTBIRD 13B    
1 29270U 06032A   24189.27021161  .00000152  00000+0  00000+0 0  9991
2 29270   0.0475  53.5808 0004624  66.1589 296.3327  1.00274523 40187
JCSAT-3A                
1 29272U 06033A   24189.88964894 -.00000348  00000+0  00000+0 0  9998
2 29272   0.0171 353.0065 0001749 104.4734 277.1279  1.00272128 65659
SYRACUSE 3B             
1 29273U 06033B   24189.33416244 -.00000048  00000+0  00000+0 0  9997
2 29273   1.0740  89.2903 0003186  14.3519 297.2104  1.00272086 65584
KOREASAT 5 (MUGUNGWHA 5)
1 29349U 06034A   24189.80699971 -.00000361  00000+0  00000+0 0  9992
2 29349   0.0473 225.5246 0001384 293.3798 170.9089  1.00272646 65515
DIRECTV 9S              
1 29494U 06043A   24190.17383850 -.00000116  00000+0  00000+0 0  9999
2 29494   0.5838  89.3557 0002781  22.5615 136.0679  1.00271535 64994
OPTUS D1                
1 29495U 06043B   24189.79476351 -.00000187  00000+0  00000+0 0  9993
2 29495   1.1976  88.5942 0003622  17.3891 258.3731  1.00271527 65031
BADR-4                  
1 29526U 06051A   24189.48344506  .00000141  00000+0  00000+0 0  9998
2 29526   0.1691  79.9864 0001528   2.9677  43.2707  1.00269969 44152
WILDBLUE-1              
1 29643U 06054A   24190.17183698 -.00000052  00000+0  00000+0 0  9994
2 29643   0.9657  90.0067 0001446  21.0868 126.1747  1.00271575 64438
SKYNET 5A               
1 30794U 07007B   24189.59567468 -.00000278  00000+0  00000+0 0  9997
2 30794   3.4821  82.2842 0003519  22.7933 130.5991  1.00273806 63580
ANIK F3                 
1 31102U 07009A   24189.51716063 -.00000004  00000+0  00000+0 0  9999
2 31102   0.0182  37.3812 0002029  61.8748 254.1500  1.00272199 39449
ASTRA 1L                
1 31306U 07016A   24189.48205270  .00000116  00000+0  00000+0 0  9995
2 31306   0.0611 318.9265 0000879  83.1421  76.5673  1.00272648 37880
