OBJECT_NAME,OBJECT_ID,EPOCH,MEAN_MOTION,ECCENTRICITY,INCLINATION,RA_OF_ASC_NODE,ARG_OF_PERICENTER,MEAN_ANOMALY,EPHEMERIS_TYPE,CLASSIFICATION_TYPE,NORAD_CAT_ID,ELEMENT_SET_NO,REV_AT_EPOCH,BSTAR,MEAN_MOTION_DOT,MEAN_MOTION_DDOT
NSS-10,2005-003A,2024-07-07T11:18:06.952320,1.00272595,.0002659,4.6663,78.9687,24.7042,314.3031,0,U,28526,999,4603,0,-.258E-5,0
XTAR-EUR,2005-005A,2024-07-07T08:41:33.952128,1.00271390,.0002609,2.5006,85.6026,16.0384,343.5136,0,U,28542,999,7107,0,.145E-5,0
XM-3 (RHYTHM),2005-008A,2024-07-07T09:13:42.852864,1.00270554,.0004649,0.0056,342.6588,243.3791,113.0528,0,U,28626,999,3550,0,-.208E-5,0
INMARSAT 4-F1,2005-009A,2024-07-07T19:11:58.691904,1.00272587,.0001464,4.3011,41.1365,85.2683,265.9317,0,U,28628,999,7055,0,.28E-6,0
DIRECTV 8,2005-019A,2024-07-07T17:46:54.981696,1.00272065,.0002766,0.0183,33.4712,81.2413,319.1430,0,U,28659,999,7007,0,-.2E-7,0
GALAXY 28 (G-28),2005-022A,2024-07-08T04:21:42.582240,1.00270032,.000155,1.4638,87.7486,140.7796,34.4980,0,U,28702,999,6971,0,-.189E-5,0
THAICOM 4,2005-028A,2024-07-07T20:44:14.569728,1.00268892,.0001927,0.0254,46.5365,66.8122,243.5087,0,U,28786,999,6921,0,-.366E-5,0
GALAXY 14 (G-14),2005-030A,2024-07-08T03:05:38.770080,1.00272948,.0001276,3.1838,83.5987,22.8651,259.3915,0,U,28790,999,6919,0,.15E-5,0
ANIK F1R,2005-036A,2024-07-07T16:07:16.360032,1.00271800,.0003445,2.4842,85.4113,19.5817,315.6176,0,U,28868,999,6904,0,-.79E-6,0
SYRACUSE 3A,2005-041B,2024-07-08T03:09:24.331968,1.00270314,.0002508,2.8264,84.6767,15.8578,279.5642,0,U,28885,999,6863,0,.127E-5,0
INMARSAT 4-F2,2005-044A,2024-07-07T12:09:50.603616,1.00271915,.0001634,4.2108,42.5342,73.8585,135.5013,0,U,28899,999,6840,0,-.266E-5,0
SPACEWAY 2,2005-046B,2024-07-07T10:32:57.075936,1.00272340,.0000466,3.6553,80.0483,192.0843,33.0808,0,U,28903,999,4422,0,.97E-6,0
METEOSAT-9 (MSG-2),2005-049B,2024-07-07T04:49:43.992768,1.00273503,.0001755,7.7316,60.7049,358.0314,344.9946,0,U,28912,999,6795,0,.118E-5,0
EUTELSAT 174A,2005-052A,2024-07-07T12:10:42.798720,1.00271250,.0006155,2.4116,85.2942,20.8959,176.4088,0,U,28924,999,4521,0,.4E-7,0
ECHOSTAR 10,2006-003A,2024-07-07T16:06:23.728608,1.00272067,.0002097,0.0183,329.9917,81.1411,6.3693,0,U,28935,999,6740,0,-.59E-6,0
SPAINSAT,2006-007A,2024-07-07T06:57:04.056192,1.00270847,.0004001,0.0256,282.1721,216.4128,221.4454,0,U,28945,999,6709,0,-.22E-5,0
EUTELSAT HOTBIRD 13E,2006-007B,2024-07-07T13:15:32.498208,1.00274009,.0004576,0.2666,106.1579,7.5826,23.9259,0,U,28946,999,6721,0,.82E-6,0
JCSAT-5A,2006-010A,2024-07-07T12:06:35.115840,1.00272308,.000069,0.0432,257.8770,293.9900,47.7719,0,U,29045,999,6665,0,-.331E-5,0
ASTRA 1KR,2006-012A,2024-07-07T13:17:17.760192,1.00271933,.0002216,0.0457,283.6899,241.6423,339.1656,0,U,29055,999,3860,0,.116E-5,0
EWS-G1 (GOES 13),2006-018A,2024-07-07T13:47:33.259200,0.99071226,.0078855,2.6785,85.0643,255.6102,298.5354,0,U,29155,999,6636,0,-.293E-5,0
GALAXY 16 (G-16),2006-023A,2024-07-07T19:35:32.216640,1.00271223,.0002483,0.0192,76.4335,41.7309,2.9561,0,U,29236,999,6615,0,-.13E-5,0
EUTELSAT HOTBIRD 13B,2006-032A,2024-07-07T06:29:06.283104,1.00274523,.0004624,0.0475,53.5808,66.1589,296.3327,0,U,29270,999,4018,0,.152E-5,0
JCSAT-3A,2006-033A,2024-07-07T21:21:05.668416,1.00272128,.0001749,0.0171,353.0065,104.4734,277.1279,0,U,29272,999,6565,0,-.348E-5,0
SYRACUSE 3B,2006-033B,2024-07-07T08:01:11.634816,1.00272086,.0003186,1.0740,89.2903,14.3519,297.2104,0,U,29273,999,6558,0,-.48E-6,0
KOREASAT 5 (MUGUNGWHA 5),2006-034A,2024-07-07T19:22:04.774944,1.00272646,.0001384,0.0473,225.5246,293.3798,170.9089,0,U,29349,999,6551,0,-.361E-5,0
DIRECTV 9S,2006-043A,2024-07-08T04:10:19.646400,1.00271535,.0002781,0.5838,89.3557,22.5615,136.0679,0,U,29494,999,6499,0,-.116E-5,0
OPTUS D1,2006-043B,2024-07-07T19:04:27.567264,1.00271527,.0003622,1.1976,88.5942,17.3891,258.3731,0,U,29495,999,6503,0,-.187E-5,0
BADR-4,2006-051A,2024-07-07T11:36:09.653184,1.00269969,.0001528,0.1691,79.9864,2.9677,43.2707,0,U,29526,999,4415,0,.141E-5,0
WILDBLUE-1,2006-054A,2024-07-08T04:07:26.715072,1.00271575,.0001446,0.9657,90.0067,21.0868,126.1747,0,U,29643,999,6443,0,-.52E-6,0
SKYNET 5A,2007-007B,2024-07-07T14:17:46.292352,1.00273806,.0003519,3.4821,82.2842,22.7933,130.5991,0,U,30794,999,6358,0,-.278E-5,0
ANIK F3,2007-009A,2024-07-07T12:24:42.678432,1.00272199,.0002029,0.0182,37.3812,61.8748,254.1500,0,U,31102,999,3944,0,-.4E-7,0
ASTRA 1L,2007-016A,2024-07-07T11:34:09.353280,1.00272648,.0000879,0.0611,318.9265,83.1421,76.5673,0,U,31306,999,3788,0,.116E-5,0
